CTC1_L_00010016-03
1 10062U 24806OW  26075.70028935  .00000000  00000+0  00000-0 0  9992
2 10062  85.0000 180.0000 0000000   0.0000   0.0000 15.90815360    12
CTC1_L_00010016-04
1 10063U 24537GW  26075.70028935  .00000000  00000+0  00000-0 0  9994
2 10063  85.0000 180.0000 0000000   0.0000  90.0000 15.90815360    12
CTC1_L_00010017-01
1 10064U 23611DR  26075.70028935  .00000000  00000+0  00000-0 0  9997
2 10064  85.0000 192.0000 0000000   0.0000 192.0000 15.90815360    19
CTC1_L_00010017-02
1 10065U 23672HS  26075.70028935  .00000000  00000+0  00000-0 0  9995
2 10065  85.0000 192.0000 0000000   0.0000 282.0000 15.90815360    10
CTC1_L_00010017-03
1 10066U 26813ZZ  26075.70028935  .00000000  00000+0  00000-0 0  9996
2 10066  85.0000 192.0000 0000000   0.0000  12.0000 15.90815360    12
CTC1_L_00010017-04
1 10067U 22298GM  26075.70028935  .00000000  00000+0  00000-0 0  9990
2 10067  85.0000 192.0000 0000000   0.0000 102.0000 15.90815360    13
CTC1_L_00010018-01
1 10068U 23431J   26075.70028935  .00000000  00000+0  00000-0 0  9991
2 10068  85.0000 204.0000 0000000   0.0000 204.0000 15.90815360    11
CTC1_L_00010018-02
1 10069U 22262PG  26075.70028935  .00000000  00000+0  00000-0 0  9993
2 10069  85.0000 204.0000 0000000   0.0000 294.0000 15.90815360    11
CTC1_L_00010018-03
1 10070U 22471WF  26075.70028935  .00000000  00000+0  00000-0 0  9997
2 10070  85.0000 204.0000 0000000   0.0000  24.0000 15.90815360    14
CTC1_L_00010018-04
1 10071U 22477IF  26075.70028935  .00000000  00000+0  00000-0 0  9994
2 10071  85.0000 204.0000 0000000   0.0000 114.0000 15.90815360    15
CTC1_L_00010019-01
1 10072U 26784GL  26075.70028935  .00000000  00000+0  00000-0 0  9990
2 10072  85.0000 216.0000 0000000   0.0000 216.0000 15.90815360    12
CTC1_L_00010019-02
1 10073U 24862SZ  26075.70028935  .00000000  00000+0  00000-0 0  9996
2 10073  85.0000 216.0000 0000000   0.0000 306.0000 15.90815360    13
CTC1_L_00010019-03
1 10074U 24339TZ  26075.70028935  .00000000  00000+0  00000-0 0  9996
2 10074  85.0000 216.0000 0000000   0.0000  36.0000 15.90815360    14
CTC1_L_00010019-04
1 10075U 23546UD  26075.70028935  .00000000  00000+0  00000-0 0  9996
2 10075  85.0000 216.0000 0000000   0.0000 126.0000 15.90815360    15
CTC1_L_00010020-01
1 10076U 23595OO  26075.70028935  .00000000  00000+0  00000-0 0  9991
2 10076  85.0000 228.0000 0000000   0.0000 228.0000 15.90815360    12
CTC1_L_00010020-02
1 10077U 26390XZ  26075.70028935  .00000000  00000+0  00000-0 0  9998
2 10077  85.0000 228.0000 0000000   0.0000 318.0000 15.90815360    13
CTC1_L_00010020-03
1 10078U 22388TT  26075.70028935  .00000000  00000+0  00000-0 0  9992
2 10078  85.0000 228.0000 0000000   0.0000  48.0000 15.90815360    14
CTC1_L_00010020-04
1 10079U 23141NL  26075.70028935  .00000000  00000+0  00000-0 0  9991
2 10079  85.0000 228.0000 0000000   0.0000 138.0000 15.90815360    15
CTC1_L_00010021-01
1 10080U 22637YS  26075.70028935  .00000000  00000+0  00000-0 0  9992
2 10080  85.0000 240.0000 0000000   0.0000 240.0000 15.90815360    15
CTC1_L_00010021-02
1 10081U 22941BA  26075.70028935  .00000000  00000+0  00000-0 0  9991
2 10081  85.0000 240.0000 0000000   0.0000 330.0000 15.90815360    16
CTC1_L_00010021-03
1 10082U 22312UY  26075.70028935  .00000000  00000+0  00000-0 0  9994
2 10082  85.0000 240.0000 0000000   0.0000  60.0000 15.90815360    17
CTC1_L_00010021-04
1 10083U 24484PD  26075.70028935  .00000000  00000+0  00000-0 0  9997
2 10083  85.0000 240.0000 0000000   0.0000 150.0000 15.90815360    18
CTC1_L_00010022-01
1 10084U 22038XL  26075.70028935  .00000000  00000+0  00000-0 0  9991
2 10084  85.0000 252.0000 0000000   0.0000 252.0000 15.90815360    15
CTC1_L_00010022-02
1 10085U 22315GP  26075.70028935  .00000000  00000+0  00000-0 0  9990
2 10085  85.0000 252.0000 0000000   0.0000 342.0000 15.90815360    16
CTC1_L_00010022-03
1 10086U 24498EJ  26075.70028935  .00000000  00000+0  00000-0 0  9995
2 10086  85.0000 252.0000 0000000   0.0000  72.0000 15.90815360    17
CTC1_L_00010022-04
1 10087U 26984UE  26075.70028935  .00000000  00000+0  00000-0 0  9998
2 10087  85.0000 252.0000 0000000   0.0000 162.0000 15.90815360    18
CTC1_L_00010023-01
1 10088U 26157NZ  26075.70028935  .00000000  00000+0  00000-0 0  9991
2 10088  85.0000 264.0000 0000000   0.0000 264.0000 15.90815360    15
CTC1_L_00010023-02
1 10089U 24226WV  26075.70028935  .00000000  00000+0  00000-0 0  9997
2 10089  85.0000 264.0000 0000000   0.0000 354.0000 15.90815360    16
CTC1_L_00010023-03
1 10090U 24421JZ  26075.70028935  .00000000  00000+0  00000-0 0  9996
2 10090  85.0000 264.0000 0000000   0.0000  84.0000 15.90815360    18
CTC1_L_00010023-04
1 10091U 22123GA  26075.70028935  .00000000  00000+0  00000-0 0  9994
2 10091  85.0000 264.0000 0000000   0.0000 174.0000 15.90815360    19
CTC1_L_00010024-01
1 10092U 23393KO  26075.70028935  .00000000  00000+0  00000-0 0  9995
2 10092  85.0000 276.0000 0000000   0.0000 276.0000 15.90815360    16
CTC1_L_00010024-02
1 10093U 24520FX  26075.70028935  .00000000  00000+0  00000-0 0  9999
2 10093  85.0000 276.0000 0000000   0.0000   6.0000 15.90815360    18
CTC1_L_00010024-03
1 10094U 25290ES  26075.70028935  .00000000  00000+0  00000-0 0  9995
2 10094  85.0000 276.0000 0000000   0.0000  96.0000 15.90815360    18
CTC1_L_00010024-04
1 10095U 23142OC  26075.70028935  .00000000  00000+0  00000-0 0  9990
2 10095  85.0000 276.0000 0000000   0.0000 186.0000 15.90815360    19
CTC1_L_00010025-01
1 10096U 23491DO  26075.70028935  .00000000  00000+0  00000-0 0  9998
2 10096  85.0000 288.0000 0000000   0.0000 288.0000 15.90815360    16
CTC1_L_00010025-02
1 10097U 24848YU  26075.70028935  .00000000  00000+0  00000-0 0  9996
2 10097  85.0000 288.0000 0000000   0.0000  18.0000 15.90815360    18
CTC1_L_00010025-03
1 10098U 26239WC  26075.70028935  .00000000  00000+0  00000-0 0  9993
2 10098  85.0000 288.0000 0000000   0.0000 108.0000 15.90815360    19
CTC1_L_00010025-04
1 10099U 22628IZ  26075.70028935  .00000000  00000+0  00000-0 0  9992
2 10099  85.0000 288.0000 0000000   0.0000 198.0000 15.90815360    19
CTC1_L_00010026-01
1 10100U 23350EN  26075.70028935  .00000000  00000+0  00000-0 0  9998
2 10100  85.0000 300.0000 0000000   0.0000 300.0000 15.90815360    12
CTC1_L_00010026-02
1 10101U 26270MA  26075.70028935  .00000000  00000+0  00000-0 0  9993
2 10101  85.0000 300.0000 0000000   0.0000  30.0000 15.90815360    13
CTC1_L_00010026-03
1 10102U 24202FV  26075.70028935  .00000000  00000+0  00000-0 0  9997
2 10102  85.0000 300.0000 0000000   0.0000 120.0000 15.90815360    14
CTC1_L_00010026-04
1 10103U 24587AF  26075.70028935  .00000000  00000+0  00000-0 0  9994
2 10103  85.0000 300.0000 0000000   0.0000 210.0000 15.90815360    15
CTC1_L_00010027-01
1 10104U 22286FL  26075.70028935  .00000000  00000+0  00000-0 0  9999
2 10104  85.0000 312.0000 0000000   0.0000 312.0000 15.90815360    12
CTC1_L_00010027-02
1 10105U 25251FV  26075.70028935  .00000000  00000+0  00000-0 0  9995
2 10105  85.0000 312.0000 0000000   0.0000  42.0000 15.90815360    13
CTC1_L_00010027-03
1 10106U 24780SE  26075.70028935  .00000000  00000+0  00000-0 0  9992
2 10106  85.0000 312.0000 0000000   0.0000 132.0000 15.90815360    14
CTC1_L_00010027-04
1 10107U 26852YB  26075.70028935  .00000000  00000+0  00000-0 0  9995
2 10107  85.0000 312.0000 0000000   0.0000 222.0000 15.90815360    15
CTC1_L_00010028-01
1 10108U 25943DI  26075.70028935  .00000000  00000+0  00000-0 0  9996
2 10108  85.0000 324.0000 0000000   0.0000 324.0000 15.90815360    12
CTC1_L_00010028-02
1 10109U 22692TC  26075.70028935  .00000000  00000+0  00000-0 0  9995
2 10109  85.0000 324.0000 0000000   0.0000  54.0000 15.90815360    13
CTC1_L_00010028-03
1 10110U 22484YS  26075.70028935  .00000000  00000+0  00000-0 0  9996
2 10110  85.0000 324.0000 0000000   0.0000 144.0000 15.90815360    15
CTC1_L_00010028-04
1 10111U 22461YM  26075.70028935  .00000000  00000+0  00000-0 0  9992
2 10111  85.0000 324.0000 0000000   0.0000 234.0000 15.90815360    16
CTC1_L_00010029-01
1 10112U 26840BI  26075.70028935  .00000000  00000+0  00000-0 0  9998
2 10112  85.0000 336.0000 0000000   0.0000 336.0000 15.90815360    13
CTC1_L_00010029-02
1 10113U 25259MF  26075.70028935  .00000000  00000+0  00000-0 0  9992
2 10113  85.0000 336.0000 0000000   0.0000  66.0000 15.90815360    14
CTC1_L_00010029-03
1 10114U 26080V   26075.70028935  .00000000  00000+0  00000-0 0  9996
2 10114  85.0000 336.0000 0000000   0.0000 156.0000 15.90815360    15
CTC1_L_00010029-04
1 10115U 23970EE  26075.70028935  .00000000  00000+0  00000-0 0  9992
2 10115  85.0000 336.0000 0000000   0.0000 246.0000 15.90815360    16
CTC1_L_00010030-01
1 10116U 26380NW  26075.70028935  .00000000  00000+0  00000-0 0  9991
2 10116  85.0000 348.0000 0000000   0.0000 348.0000 15.90815360    13
CTC1_L_00010030-02
1 10117U 24519BU  26075.70028935  .00000000  00000+0  00000-0 0  9994
2 10117  85.0000 348.0000 0000000   0.0000  78.0000 15.90815360    14
CTC1_L_00010030-03
1 10118U 23746IB  26075.70028935  .00000000  00000+0  00000-0 0  9996
2 10118  85.0000 348.0000 0000000   0.0000 168.0000 15.90815360    15
CTC1_L_00010030-04
1 10119U 26464YV  26075.70028935  .00000000  00000+0  00000-0 0  9997
2 10119  85.0000 348.0000 0000000   0.0000 258.0000 15.90815360    16
